start=new Date('2022-09-16T00:00:00.000Z').valueOf();
sats=[{"REF_FRAME":"TEME","SEMIMAJOR_AXIS":"6917.984","APOAPSIS":"541.316","EPOCH":"2022-09-15T17:06:48.108384","ARG_OF_PERICENTER":"63.2960","TLE_LINE1":"1 52466U 22049R   22258.71305681  .00009245  00000-0  59875-3 0  9997","PERIAPSIS":"538.381","MEAN_ELEMENT_THEORY":"SGP4","MEAN_ANOMALY":"296.8249","RA_OF_ASC_NODE":"4.7473","CLASSIFICATION_TYPE":"U","RCS_SIZE":"LARGE","MEAN_MOTION_DOT":"0.00009245","DECAY_DATE":null,"OBJECT_TYPE":"PAYLOAD","INCLINATION":"53.2170","TLE_LINE2":"2 52466  53.2170   4.7473 0002121  63.2960 296.8249 15.08806262 20370","GP_ID":"212684303","OBJECT_NAME":"STARLINK-3840","OBJECT_ID":"2022-049R","FILE":"3575050","NORAD_CAT_ID":"52466","ELEMENT_SET_NO":"999","SITE":"AFETR","LAUNCH_DATE":"2022-05-06","MEAN_MOTION":"15.08806262","CENTER_NAME":"EARTH","TIME_SYSTEM":"UTC","COUNTRY_CODE":"US","EPHEMERIS_TYPE":"0","ECCENTRICITY":"0.00021210","REV_AT_EPOCH":"2037","PERIOD":"95.440","MEAN_MOTION_DDOT":"0.0000000000000","BSTAR":"0.00059875000000"},{"EPOCH":"2022-09-15T16:00:00.999936","APOAPSIS":"540.767","SEMIMAJOR_AXIS":"6917.994","REF_FRAME":"TEME","PERIAPSIS":"538.951","TLE_LINE1":"1 52467U 22049S   22258.66667824  .00035727  00000-0  22538-2 0  9991","ARG_OF_PERICENTER":"51.4069","MEAN_MOTION_DOT":"0.00035727","RCS_SIZE":"LARGE","CLASSIFICATION_TYPE":"U","RA_OF_ASC_NODE":"4.9628","MEAN_ANOMALY":"36.7556","MEAN_ELEMENT_THEORY":"SGP4","GP_ID":"212683580","TLE_LINE2":"2 52467  53.2181   4.9628 0001313  51.4069  36.7556 15.08802812  1309","INCLINATION":"53.2181","OBJECT_TYPE":"PAYLOAD","DECAY_DATE":null,"OBJECT_ID":"2022-049S","OBJECT_NAME":"STARLINK-3873","CENTER_NAME":"EARTH","LAUNCH_DATE":"2022-05-06","MEAN_MOTION":"15.08802812","SITE":"AFETR","ELEMENT_SET_NO":"999","NORAD_CAT_ID":"52467","FILE":"3575050","EPHEMERIS_TYPE":"0","COUNTRY_CODE":"US","TIME_SYSTEM":"UTC","BSTAR":"0.00225380000000","MEAN_MOTION_DDOT":"0.0000000000000","PERIOD":"95.440","REV_AT_EPOCH":"130","ECCENTRICITY":"0.00013130"},{"RCS_SIZE":"LARGE","MEAN_MOTION_DOT":"0.00002972","CLASSIFICATION_TYPE":"U","RA_OF_ASC_NODE":"4.5084","MEAN_ANOMALY":"308.2957","MEAN_ELEMENT_THEORY":"SGP4","GP_ID":"212684461","TLE_LINE2":"2 52468  53.2177   4.5084 0001725  51.8190 308.2957 15.08843935 20385","INCLINATION":"53.2177","OBJECT_TYPE":"PAYLOAD","DECAY_DATE":null,"EPOCH":"2022-09-15T18:26:17.692512","APOAPSIS":"540.927","SEMIMAJOR_AXIS":"6917.868","REF_FRAME":"TEME","PERIAPSIS":"538.540","TLE_LINE1":"1 52468U 22049T   22258.76826033  .00002972  00000-0  20470-3 0  9992","ARG_OF_PERICENTER":"51.8190","EPHEMERIS_TYPE":"0","COUNTRY_CODE":"US","TIME_SYSTEM":"UTC","BSTAR":"0.00020470000000","MEAN_MOTION_DDOT":"0.0000000000000","REV_AT_EPOCH":"2038","PERIOD":"95.437","ECCENTRICITY":"0.00017250","OBJECT_ID":"2022-049T","OBJECT_NAME":"STARLINK-3864","LAUNCH_DATE":"2022-05-06","MEAN_MOTION":"15.08843935","CENTER_NAME":"EARTH","SITE":"AFETR","ELEMENT_SET_NO":"999","NORAD_CAT_ID":"52468","FILE":"3575050"},{"OBJECT_ID":"2022-049U","OBJECT_NAME":"STARLINK-3828","MEAN_MOTION":"15.08834530","LAUNCH_DATE":"2022-05-06","CENTER_NAME":"EARTH","SITE":"AFETR","NORAD_CAT_ID":"52469","FILE":"3575050","ELEMENT_SET_NO":"999","COUNTRY_CODE":"US","EPHEMERIS_TYPE":"0","TIME_SYSTEM":"UTC","BSTAR":"0.00000058555000","ECCENTRICITY":"0.00016620","MEAN_MOTION_DDOT":"0.0000000000000","REV_AT_EPOCH":"2037","PERIOD":"95.438","APOAPSIS":"540.912","EPOCH":"2022-09-15T17:01:30.533088","REF_FRAME":"TEME","SEMIMAJOR_AXIS":"6917.897","PERIAPSIS":"538.612","ARG_OF_PERICENTER":"59.3718","TLE_LINE1":"1 52469U 22049R   22258.70938117 -.00000279  00000-0  58555-6 0  9991","MEAN_ANOMALY":"300.7438","MEAN_MOTION_DOT":"-0.00000279","RCS_SIZE":"LARGE","CLASSIFICATION_TYPE":"U","RA_OF_ASC_NODE":"4.7715","MEAN_ELEMENT_THEORY":"SGP4","TLE_LINE2":"2 52469  53.2193   4.7715 0001662  59.3718 300.7438 15.08834530 20377","GP_ID":"212684150","DECAY_DATE":null,"INCLINATION":"53.2193","OBJECT_TYPE":"PAYLOAD"},{"SITE":"AFETR","LAUNCH_DATE":"2022-05-06","CENTER_NAME":"EARTH","MEAN_MOTION":"15.08823161","FILE":"3575050","NORAD_CAT_ID":"52470","ELEMENT_SET_NO":"999","OBJECT_ID":"2022-049V","OBJECT_NAME":"STARLINK-3859","BSTAR":"0.00212850000000","ECCENTRICITY":"0.00017130","REV_AT_EPOCH":"130","PERIOD":"95.439","MEAN_MOTION_DDOT":"0.0000000000000","COUNTRY_CODE":"US","EPHEMERIS_TYPE":"0","TIME_SYSTEM":"UTC","PERIAPSIS":"538.612","ARG_OF_PERICENTER":"53.7917","TLE_LINE1":"1 52470U 22049V   22258.66667824  .00033734  00000-0  21285-2 0  9999","APOAPSIS":"540.982","EPOCH":"2022-09-15T16:00:00.999936","REF_FRAME":"TEME","SEMIMAJOR_AXIS":"6917.932","TLE_LINE2":"2 52470  53.2182   4.9637 0001713  53.7917 154.2633 15.08823161  1307","GP_ID":"212683889","DECAY_DATE":null,"OBJECT_TYPE":"PAYLOAD","INCLINATION":"53.2182","MEAN_ANOMALY":"154.2633","RA_OF_ASC_NODE":"4.9637","MEAN_MOTION_DOT":"0.00033734","RCS_SIZE":"LARGE","CLASSIFICATION_TYPE":"U","MEAN_ELEMENT_THEORY":"SGP4"},{"MEAN_ELEMENT_THEORY":"SGP4","RA_OF_ASC_NODE":"4.9642","MEAN_MOTION_DOT":"0.00034360","RCS_SIZE":"LARGE","CLASSIFICATION_TYPE":"U","MEAN_ANOMALY":"94.1935","OBJECT_TYPE":"PAYLOAD","INCLINATION":"53.2172","DECAY_DATE":null,"GP_ID":"212683994","TLE_LINE2":"2 52471  53.2172   4.9642 0001744  53.8225  94.1935 15.08828908  1301","SEMIMAJOR_AXIS":"6917.914","REF_FRAME":"TEME","EPOCH":"2022-09-15T16:00:00.999936","APOAPSIS":"540.986","TLE_LINE1":"1 52471U 22049W   22258.66667824  .00034360  00000-0  21671-2 0  9995","ARG_OF_PERICENTER":"53.8225","PERIAPSIS":"538.573","TIME_SYSTEM":"UTC","EPHEMERIS_TYPE":"0","COUNTRY_CODE":"US","PERIOD":"95.438","REV_AT_EPOCH":"130","MEAN_MOTION_DDOT":"0.0000000000000","ECCENTRICITY":"0.00017440","BSTAR":"0.00216710000000","OBJECT_NAME":"STARLINK-3862","OBJECT_ID":"2022-049W","ELEMENT_SET_NO":"999","FILE":"3575050","NORAD_CAT_ID":"52471","SITE":"AFETR","LAUNCH_DATE":"2022-05-06","CENTER_NAME":"EARTH","MEAN_MOTION":"15.08828908"},{"ARG_OF_PERICENTER":"50.3846","TLE_LINE1":"1 52472U 22049X   22258.69096906  .00000118  00000-0  25479-4 0  9992","PERIAPSIS":"538.573","REF_FRAME":"TEME","SEMIMAJOR_AXIS":"6917.846","APOAPSIS":"540.849","EPOCH":"2022-09-15T16:34:59.726784","DECAY_DATE":null,"OBJECT_TYPE":"PAYLOAD","INCLINATION":"53.2199","TLE_LINE2":"2 52472  53.2199   4.8484 0001645  50.3846 309.7292 15.08851328 20376","GP_ID":"212684674","MEAN_ELEMENT_THEORY":"SGP4","MEAN_ANOMALY":"309.7292","RA_OF_ASC_NODE":"4.8484","MEAN_MOTION_DOT":"0.00000118","RCS_SIZE":"LARGE","CLASSIFICATION_TYPE":"U","FILE":"3575050","NORAD_CAT_ID":"52472","ELEMENT_SET_NO":"999","SITE":"AFETR","MEAN_MOTION":"15.08851328","LAUNCH_DATE":"2022-05-06","CENTER_NAME":"EARTH","OBJECT_NAME":"STARLINK-3881","OBJECT_ID":"2022-049X","ECCENTRICITY":"0.00016450","PERIOD":"95.437","REV_AT_EPOCH":"2037","MEAN_MOTION_DDOT":"0.0000000000000","BSTAR":"0.00002547900000","TIME_SYSTEM":"UTC","COUNTRY_CODE":"US","EPHEMERIS_TYPE":"0"},{"GP_ID":"212683737","TLE_LINE2":"2 52473  53.2180   4.9703 0001598  48.3345 139.7295 15.08833530  1301","OBJECT_TYPE":"PAYLOAD","INCLINATION":"53.2180","DECAY_DATE":null,"RA_OF_ASC_NODE":"4.9703","MEAN_MOTION_DOT":"0.00028303","RCS_SIZE":"LARGE","CLASSIFICATION_TYPE":"U","MEAN_ANOMALY":"139.7295","MEAN_ELEMENT_THEORY":"SGP4","PERIAPSIS":"538.660","TLE_LINE1":"1 52473U 22049Y   22258.66667824  .00028303  00000-0  17896-2 0  9991","ARG_OF_PERICENTER":"48.3345","EPOCH":"2022-09-15T16:00:00.999936","APOAPSIS":"540.871","SEMIMAJOR_AXIS":"6917.900","REF_FRAME":"TEME","BSTAR":"0.00178960000000","PERIOD":"95.438","REV_AT_EPOCH":"130","MEAN_MOTION_DDOT":"0.0000000000000","ECCENTRICITY":"0.00015980","EPHEMERIS_TYPE":"0","COUNTRY_CODE":"US","TIME_SYSTEM":"UTC","SITE":"AFETR","CENTER_NAME":"EARTH","LAUNCH_DATE":"2022-05-06","MEAN_MOTION":"15.08833530","ELEMENT_SET_NO":"999","FILE":"3575050","NORAD_CAT_ID":"52473","OBJECT_ID":"2022-049Y","OBJECT_NAME":"STARLINK-3879"},{"CENTER_NAME":"EARTH","LAUNCH_DATE":"2022-05-06","MEAN_MOTION":"15.08823065","SITE":"AFETR","NORAD_CAT_ID":"52474","FILE":"3575050","ELEMENT_SET_NO":"999","OBJECT_ID":"2022-049Z","OBJECT_NAME":"STARLINK-3855","BSTAR":"0.00259420000000","ECCENTRICITY":"0.00017970","MEAN_MOTION_DDOT":"0.0000000000000","PERIOD":"95.439","REV_AT_EPOCH":"130","COUNTRY_CODE":"US","EPHEMERIS_TYPE":"0","TIME_SYSTEM":"UTC","PERIAPSIS":"538.554","ARG_OF_PERICENTER":"46.7923","TLE_LINE1":"1 52474U 22049Z   22258.66667824  .00041222  00000-0  25942-2 0  9998","APOAPSIS":"541.040","EPOCH":"2022-09-15T16:00:00.999936","REF_FRAME":"TEME","SEMIMAJOR_AXIS":"6917.932","TLE_LINE2":"2 52474  53.2161 354.9612 0001797  46.7923  76.2289 15.08823065  1303","GP_ID":"212684304","DECAY_DATE":null,"INCLINATION":"53.2161","OBJECT_TYPE":"PAYLOAD","MEAN_ANOMALY":"76.2289","RCS_SIZE":"LARGE","MEAN_MOTION_DOT":"0.00041222","CLASSIFICATION_TYPE":"U","RA_OF_ASC_NODE":"354.9612","MEAN_ELEMENT_THEORY":"SGP4"},{"REF_FRAME":"TEME","SEMIMAJOR_AXIS":"6917.859","APOAPSIS":"540.837","EPOCH":"2022-09-15T19:47:09.711744","ARG_OF_PERICENTER":"63.9163","TLE_LINE1":"1 52475U 22049AA  22258.82441796  .00007572  00000-0  49325-3 0  9997","PERIAPSIS":"538.611","MEAN_ELEMENT_THEORY":"SGP4","MEAN_ANOMALY":"296.1994","RA_OF_ASC_NODE":"4.2491","RCS_SIZE":"LARGE","MEAN_MOTION_DOT":"0.00007572","CLASSIFICATION_TYPE":"U","DECAY_DATE":null,"OBJECT_TYPE":"PAYLOAD","INCLINATION":"53.2187","TLE_LINE2":"2 52475  53.2187   4.2491 0001609  63.9163 296.1994 15.08846930 20393","GP_ID":"212683581","OBJECT_NAME":"STARLINK-3882","OBJECT_ID":"2022-049AA","FILE":"3575050","NORAD_CAT_ID":"52475","ELEMENT_SET_NO":"999","SITE":"AFETR","MEAN_MOTION":"15.08846930","LAUNCH_DATE":"2022-05-06","CENTER_NAME":"EARTH","TIME_SYSTEM":"UTC","COUNTRY_CODE":"US","EPHEMERIS_TYPE":"0","ECCENTRICITY":"0.00016090","PERIOD":"95.437","REV_AT_EPOCH":"2039","MEAN_MOTION_DDOT":"0.0000000000000","BSTAR":"0.00049325000000"}];
